{
  "type": "FeatureCollection",
  "features": [
    {
      "type": "Feature",
      "properties": {
        "id": "sdb-101",
        "name": "Fujii-dera",
        "category": "temple",
        "iconKey": "temple",
        "description": "Temple 11 of the Shikoku 88-temple pilgrimage, one of only three Zen temples on the route. Its ancient wisteria and position at the foot of the Shōsan-ji ascent make it the threshold to the first major Henro-korogashi mountain stage."
      },
      "geometry": {
        "type": "Point",
        "coordinates": [134.348534, 34.05167]
      }
    },
    {
      "type": "Feature",
      "properties": {
        "id": "sdb-1009",
        "name": "HENRO HOUSE Oyado Eleven",
        "category": "accommodation",
        "iconKey": "pilgrim-lodging",
        "description": "Pilgrim hostel directly in front of Fujii-dera and a practical starting point for the Shōsan-ji climb. Henro Hub records washer, dryer, microwave, bicycles and Wi-Fi among its facilities."
      },
      "geometry": {
        "type": "Point",
        "coordinates": [134.35038, 34.053327]
      }
    },
    {
      "type": "Feature",
      "properties": {
        "id": "sdb-151",
        "name": "Fujii-dera Okunoin — Dainichi Nyorai Statue",
        "category": "sacred-site",
        "iconKey": "daishido",
        "description": "Fujii-dera's Okunoin on the ascent above Temple 11, recorded in Henro Hub as the Dainichi Nyorai Statue."
      },
      "geometry": {
        "type": "Point",
        "coordinates": [134.34529, 34.050178]
      }
    },
    {
      "type": "Feature",
      "properties": {
        "id": "sdb-163",
        "name": "Chōto-an",
        "category": "sacred-site",
        "iconKey": "daishido",
        "description": "A small Daishi-dō and traditional resting stop on the Shōsan-ji approach, associated with a Kōbō Daishi statue. Henro Hub records a toilet at the site."
      },
      "geometry": {
        "type": "Point",
        "coordinates": [134.345112, 34.033165]
      }
    },
    {
      "type": "Feature",
      "properties": {
        "id": "sdb-422",
        "name": "The birthplace of landscape",
        "category": "viewpoint",
        "iconKey": "semi-enclosed-hut",
        "description": "A quiet mountain-trail rest hut and viewpoint with a wide bench and expansive scenery. Henro Hub records no nearby services."
      },
      "geometry": {
        "type": "Point",
        "coordinates": [134.34425, 34.032792]
      }
    },
    {
      "type": "Feature",
      "properties": {
        "id": "sdb-162",
        "name": "Ryusui-an",
        "category": "temple",
        "iconKey": "temple",
        "description": "A sacred stop on the Shōsan-ji approach where several small structures once served as pilgrim shelters. Henro Hub's Shōsan-ji research also records fresh water here."
      },
      "geometry": {
        "type": "Point",
        "coordinates": [134.330496, 34.016183]
      }
    },
    {
      "type": "Feature",
      "properties": {
        "id": "sdb-405",
        "name": "Pilgrim Rest Area Ryūsui-an",
        "category": "pilgrim-rest",
        "iconKey": "enclosed-hut",
        "description": "An enclosed pilgrim hut in the forest beside Ryūsui-an, with space for roughly three to four people and usually spring water. No toilet is recorded."
      },
      "geometry": {
        "type": "Point",
        "coordinates": [134.33038, 34.015467]
      }
    },
    {
      "type": "Feature",
      "properties": {
        "id": "sdb-150",
        "name": "Joren-an",
        "category": "sacred-site",
        "iconKey": "shrine",
        "description": "Also known as Ipponsugian, a sacred roadside stop associated with a large cedar traditionally believed to have been planted by Kōbō Daishi and with a Daishi statue."
      },
      "geometry": {
        "type": "Point",
        "coordinates": [134.32495, 34.002845]
      }
    },
    {
      "type": "Feature",
      "properties": {
        "id": "sdb-170",
        "name": "Joshin-an",
        "category": "sacred-site",
        "iconKey": "temple",
        "description": "A small hall or hermitage on the Shōsan-ji approach associated with Jizō worship and training practice. Henro Hub notes that it is not formally Shōsan-ji's Okunoin."
      },
      "geometry": {
        "type": "Point",
        "coordinates": [134.31979, 33.984039]
      }
    },
    {
      "type": "Feature",
      "properties": {
        "id": "sdb-161",
        "name": "Ryūō-kutsu",
        "category": "sacred-site",
        "iconKey": "cave",
        "description": "A sacred cave associated with dragon-king (Ryūō) belief on the mountain. Henro Hub notes that it is not the formal Okunoin of Shōsan-ji."
      },
      "geometry": {
        "type": "Point",
        "coordinates": [134.31422, 33.981729]
      }
    },
    {
      "type": "Feature",
      "properties": {
        "id": "sdb-77",
        "name": "Shōsan-ji",
        "category": "temple",
        "iconKey": "temple",
        "description": "Temple 12 of the Shikoku 88-temple pilgrimage, dramatically situated more than 700 metres above sea level on a forested mountain ridge. It is the first major nansho, or hard-to-reach sacred site, of the route."
      },
      "geometry": {
        "type": "Point",
        "coordinates": [134.310412, 33.985057]
      }
    },
    {
      "type": "Feature",
      "properties": {
        "id": "sdb-139",
        "name": "Zaō-Dai Gongen",
        "category": "sacred-site",
        "iconKey": "daishido",
        "description": "Shōsan-ji's summit Okunoin, preserving the mountain-cult and Shugendō layer of the sacred landscape. It is reached by a steep continuation beyond Temple 12."
      },
      "geometry": {
        "type": "Point",
        "coordinates": [134.30473221327082, 33.98199516253596]
      }
    }
  ]
}
