{"type":"FeatureCollection","features":[{"type":"Feature","properties":{"route_slug":"shikoku88-temple-11-to-temple-12","asset_kind":"segment_web","simplification_tolerance_m":15.0,"source_vertices":564,"vertices":87,"length_m":11302.06},"geometry":{"type":"LineString","coordinates":[[134.348913,34.051593],[134.349391,34.052354],[134.348293,34.052612],[134.347749,34.051837],[134.348136,34.051467],[134.347773,34.04899],[134.347254,34.049161],[134.347051,34.04833],[134.346617,34.04806],[134.346436,34.048369],[134.346528,34.04799],[134.346188,34.048085],[134.346342,34.047587],[134.344399,34.046594],[134.344575,34.045122],[134.343518,34.043708],[134.343667,34.043454],[134.344615,34.043161],[134.345048,34.042665],[134.346395,34.042214],[134.347031,34.041763],[134.349014,34.039526],[134.348967,34.037722],[134.348466,34.037142],[134.348337,34.036301],[134.346781,34.035235],[134.34672,34.03456],[134.346036,34.033641],[134.343464,34.032373],[134.342767,34.031601],[134.338092,34.031821],[134.33604,34.031369],[134.334694,34.030107],[134.334694,34.028123],[134.33529,34.02633],[134.334959,34.024797],[134.335128,34.024165],[134.334255,34.022052],[134.334106,34.020319],[134.331954,34.018901],[134.33171,34.01796],[134.331291,34.017566],[134.331256,34.016632],[134.330222,34.015691],[134.33026,34.015222],[134.329302,34.014858],[134.329673,34.013354],[134.328076,34.012295],[134.326757,34.010599],[134.325011,34.010024],[134.323156,34.008453],[134.32411,34.006135],[134.32412,34.005755],[134.32367,34.005289],[134.324137,34.005012],[134.325349,34.002849],[134.324495,34.002312],[134.324265,34.00256],[134.323475,34.002436],[134.323326,34.002775],[134.322759,34.002526],[134.320994,33.999117],[134.320501,33.998452],[134.319662,33.998638],[134.320189,33.998182],[134.320095,33.997892],[134.31804,33.995722],[134.318646,33.995286],[134.318453,33.99499],[134.318719,33.994877],[134.316544,33.99427],[134.315733,33.99441],[134.31555,33.994951],[134.314513,33.994773],[134.315227,33.993701],[134.315253,33.992207],[134.314773,33.991931],[134.314288,33.991951],[134.314172,33.991607],[134.313387,33.991497],[134.311975,33.99033],[134.310224,33.987877],[134.310107,33.986666],[134.310554,33.986257],[134.311314,33.986077],[134.311588,33.984542],[134.310591,33.985073]]}}]}
